[{"OBJECT_NAME":"STARLINK-34002","OBJECT_ID":"2025-093W","EPOCH":"2026-03-09T09:02:34.056384","MEAN_MOTION":15.27581665,"ECCENTRICITY":7.143e-5,"INCLINATION":42.9989,"RA_OF_ASC_NODE":79.7039,"ARG_OF_PERICENTER":287.335,"MEAN_ANOMALY":72.7424,"EPHEMERIS_TYPE":0,"CLASSIFICATION_TYPE":"U","NORAD_CAT_ID":63856,"ELEMENT_SET_NO":999,"REV_AT_EPOCH":4770,"BSTAR":0.0012357867,"MEAN_MOTION_DOT":0.00033902,"MEAN_MOTION_DDOT":0},{"OBJECT_NAME":"GEOSCAN 2 (RS92S2)","OBJECT_ID":"2025-155Q","EPOCH":"2026-03-09T23:01:48.939744","MEAN_MOTION":15.28709337,"ECCENTRICITY":0.00085277,"INCLINATION":97.4463,"RA_OF_ASC_NODE":37.5259,"ARG_OF_PERICENTER":140.9505,"MEAN_ANOMALY":219.2352,"EPHEMERIS_TYPE":0,"CLASSIFICATION_TYPE":"U","NORAD_CAT_ID":64890,"ELEMENT_SET_NO":999,"REV_AT_EPOCH":6561,"BSTAR":0.00051551761,"MEAN_MOTION_DOT":0.00014341,"MEAN_MOTION_DDOT":0}]
